$$SOE
2460147.500000000, A.D. 2023-Jul-22 00:00:00.0000, 3.670049227476382E+08, -5.131322116416297E+07, -1.521142397178222E+07,
2460154.500000000, A.D. 2023-Jul-29 00:00:00.0000, 3.666952891943272E+08, -4.039357841140929E+07, -1.450347824906332E+07,
2460161.500000000, A.D. 2023-Aug-05 00:00:00.0000, 3.660319667356806E+08, -2.943487389451493E+07, -1.378154254021853E+07,
2460168.500000000, A.D. 2023-Aug-12 00:00:00.0000, 3.650105961050764E+08, -1.844727593752570E+07, -1.304612520312645E+07,
2460175.500000000, A.D. 2023-Aug-19 00:00:00.0000, 3.636269884388307E+08, -7.441271062115137E+06, -1.229776047384042E+07,
2460182.500000000, A.D. 2023-Aug-26 00:00:00.0000, 3.618771416084025E+08, 3.572327174947220E+06, -1.153700956222909E+07,
2460189.500000000, A.D. 2023-Sep-02 00:00:00.0000, 3.597572578916606E+08, 1.458236956353889E+07, -1.076446177765618E+07,
2460196.500000000, A.D. 2023-Sep-09 00:00:00.0000, 3.572637630907145E+08, 2.557736289117255E+07, -9.980735687516110E+06,
2460203.500000000, A.D. 2023-Sep-16 00:00:00.0000, 3.543933273311043E+08, 3.654546190685897E+07, -9.186480324192218E+06,
2460210.500000000, A.D. 2023-Sep-23 00:00:00.0000, 3.511428880167004E+08, 4.747446200014858E+07, -8.382376449848751E+06,
2460217.500000000, A.D. 2023-Sep-30 00:00:00.0000, 3.475096746521461E+08, 5.835179392312224E+07, -7.569137743896186E+06,
2460224.500000000, A.D. 2023-Oct-07 00:00:00.0000, 3.434912332383059E+08, 6.916452017121337E+07, -6.747511733098891E+06,
2460231.500000000, A.D. 2023-Oct-14 00:00:00.0000, 3.390854513436948E+08, 7.989932987712017E+07, -5.918280821187880E+06,
2460238.500000000, A.D. 2023-Oct-21 00:00:00.0000, 3.342905871268296E+08, 9.054253400005773E+07, -5.082263572930459E+06,
2460245.500000000, A.D. 2023-Oct-28 00:00:00.0000, 3.291053009176562E+08, 1.010800632715027E+08, -4.240315925389864E+06,
2460252.500000000, A.D. 2023-Nov-04 00:00:00.0000, 3.235286881305867E+08, 1.114974683481727E+08, -3.393332261276081E+06,
2460259.500000000, A.D. 2023-Nov-11 00:00:00.0000, 3.175603136948038E+08, 1.217799218121416E+08, -2.542246394744448E+06,
2460266.500000000, A.D. 2023-Nov-18 00:00:00.0000, 3.112002482104273E+08, 1.319122222119536E+08, -1.688032478180520E+06,
2460273.500000000, A.D. 2023-Nov-25 00:00:00.0000, 3.044491058691064E+08, 1.418788004436513E+08, -8.317058158477396E+05,
2460280.500000000, A.D. 2023-Dec-02 00:00:00.0000, 2.973080841050974E+08, 1.516637287550780E+08, 2.567643324141204E+04,
2460287.500000000, A.D. 2023-Dec-09 00:00:00.0000, 2.897790049608724E+08, 1.612507326271079E+08, 8.830146745928600E+05,
2460294.500000000, A.D. 2023-Dec-16 00:00:00.0000, 2.818643583263077E+08, 1.706232058730691E+08, 1.739166419639520E+06,
2460301.500000000, A.D. 2023-Dec-23 00:00:00.0000, 2.735673472302178E+08, 1.797642299822746E+08, 2.592946000395082E+06,
2460308.500000000, A.D. 2023-Dec-30 00:00:00.0000, 2.648919336193889E+08, 1.886565991031824E+08, 3.443124694873273E+06,
2460315.500000000, A.D. 2024-Jan-06 00:00:00.0000, 2.558428825800242E+08, 1.972828486692943E+08, 4.288431265159339E+06,
2460322.500000000, A.D. 2024-Jan-13 00:00:00.0000, 2.464258078616207E+08, 2.056252862236867E+08, 5.127552502764925E+06,
2460329.500000000, A.D. 2024-Jan-20 00:00:00.0000, 2.366472195442553E+08, 2.136660278713410E+08, 5.959133954708770E+06,
2460336.500000000, A.D. 2024-Jan-27 00:00:00.0000, 2.265145713659031E+08, 2.213870413445501E+08, 6.781781105178371E+06,
2460343.500000000, A.D. 2024-Feb-03 00:00:00.0000, 2.160363067613994E+08, 2.287701950448795E+08, 7.594061011054948E+06,
2460350.500000000, A.D. 2024-Feb-10 00:00:00.0000, 2.052219033001235E+08, 2.357973130472185E+08, 8.394504378616408E+06,
2460357.500000000, A.D. 2024-Feb-17 00:00:00.0000, 1.940819149973258E+08, 2.424502363026103E+08, 9.181608105254143E+06,
2460364.500000000, A.D. 2024-Feb-24 00:00:00.0000, 1.826280117977766E+08, 2.487108902222825E+08, 9.953838318568602E+06,
2460371.500000000, A.D. 2024-Mar-02 00:00:00.0000, 1.708730154526796E+08, 2.545613587023548E+08, 1.070963393952078E+07,
2460378.500000000, A.D. 2024-Mar-09 00:00:00.0000, 1.588309310539784E+08, 2.599839645277851E+08, 1.144741078027913E+07,
2460385.500000000, A.D. 2024-Mar-16 00:00:00.0000, 1.465169736896095E+08, 2.649613562493215E+08, 1.216556618040980E+07,
2460392.500000000, A.D. 2024-Mar-23 00:00:00.0000, 1.339475891422608E+08, 2.694766024149851E+08, 1.286248429850590E+07,
2460399.500000000, A.D. 2024-Mar-30 00:00:00.0000, 1.211404653799055E+08, 2.735132927479848E+08, 1.353654227059959E+07,
2460406.500000000, A.D. 2024-Apr-06 00:00:00.0000, 1.081145340550046E+08, 2.770556423750113E+08, 1.418611693742467E+07,
2460413.500000000, A.D. 2024-Apr-13 00:00:00.0000, 9.488996455124268E+07, 2.800885992687283E+08, 1.480959187380503E+07,
2460420.500000000, A.D. 2024-Apr-20 00:00:00.0000, 8.148814865492378E+07, 2.825979567151145E+08, 1.540536500199048E+07,
2460427.500000000, A.D. 2024-Apr-27 00:00:00.0000, 6.793167341674237E+07, 2.845704691909091E+08, 1.597185684473898E+07,
2460434.500000000, A.D. 2024-May-04 00:00:00.0000, 5.424428147290164E+07, 2.859939697195434E+08, 1.650751930109361E+07,
2460441.500000000, A.D. 2024-May-11 00:00:00.0000, 4.045081838054579E+07, 2.868574872023389E+08, 1.701084484769908E+07,
2460448.500000000, A.D. 2024-May-18 00:00:00.0000, 2.657716653615815E+07, 2.871513621833944E+08, 1.748037607713076E+07,
2460455.500000000, A.D. 2024-May-25 00:00:00.0000, 1.265016539378761E+07, 2.868673593370898E+08, 1.791471547209521E+07,
2460462.500000000, A.D. 2024-Jun-01 00:00:00.0000, -1.302482024922006E+06, 2.859987748050745E+08, 1.831253529226689E+07,
2460469.500000000, A.D. 2024-Jun-08 00:00:00.0000, -1.525231587884605E+07, 2.845405364681621E+08, 1.867258742258944E+07,
2460476.500000000, A.D. 2024-Jun-15 00:00:00.0000, -2.917023861319848E+07, 2.824892957727088E+08, 1.899371305195133E+07,
2460483.500000000, A.D. 2024-Jun-22 00:00:00.0000, -4.302664661120138E+07, 2.798435103751889E+08, 1.927485222059400E+07,
2460490.500000000, A.D. 2024-Jun-29 00:00:00.0000, -5.679157537127540E+07, 2.766035139215053E+08, 1.951505312304921E+07,
2460497.500000000, A.D. 2024-Jul-06 00:00:00.0000, -7.043485413675234E+07, 2.727715687282481E+08, 1.971348056235856E+07,
2460504.500000000, A.D. 2024-Jul-13 00:00:00.0000, -8.392626633692084E+07, 2.683519026653000E+08, 1.986942345719713E+07,
2460511.500000000, A.D. 2024-Jul-20 00:00:00.0000, -9.723571584356189E+07, 2.633507301463505E+08, 1.998230153619212E+07,
2460518.500000000, A.D. 2024-Jul-27 00:00:00.0000, -1.103333974740958E+08, 2.577762553125913E+08, 2.005167106973837E+07,
2460525.500000000, A.D. 2024-Aug-03 00:00:00.0000, -1.231899690650192E+08, 2.516386564118536E+08, 2.007722946620333E+07,
2460532.500000000, A.D. 2024-Aug-10 00:00:00.0000, -1.357767224343517E+08, 2.449500511123060E+08, 2.005881861796243E+07,
2460539.500000000, A.D. 2024-Aug-17 00:00:00.0000, -1.480657506310218E+08, 2.377244429070821E+08, 1.999642691916643E+07,
2460546.500000000, A.D. 2024-Aug-24 00:00:00.0000, -1.600301089218378E+08, 2.299776491252420E+08, 1.989018990243648E+07,
2460553.500000000, A.D. 2024-Aug-31 00:00:00.0000, -1.716439669834664E+08, 2.217272114219326E+08, 1.974038945949312E+07,
2460560.500000000, A.D. 2024-Sep-07 00:00:00.0000, -1.828827496908030E+08, 2.129922901812256E+08, 1.954745163286205E+07,
2460567.500000000, A.D. 2024-Sep-14 00:00:00.0000, -1.937232644129923E+08, 2.037935454691024E+08, 1.931194309189391E+07,
2460574.500000000, A.D. 2024-Sep-21 00:00:00.0000, -2.041438151419108E+08, 1.941530068801229E+08, 1.903456658056799E+07,
2460581.500000000, A.D. 2024-Sep-28 00:00:00.0000, -2.141243025693630E+08, 1.840939312149296E+08, 1.871615521083386E+07,
2460588.500000000, A.D. 2024-Oct-05 00:00:00.0000, -2.236463054190520E+08, 1.736406502964321E+08, 1.835766537931034E+07,
2460595.500000000, A.D. 2024-Oct-12 00:00:00.0000, -2.326931427705520E+08, 1.628184142862181E+08, 1.796016871694016E+07,
2460602.500000000, A.D. 2024-Oct-19 00:00:00.0000, -2.412499189029541E+08, 1.516532326545233E+08, 1.752484335707437E+07,
2460609.500000000, A.D. 2024-Oct-26 00:00:00.0000, -2.493035508227972E+08, 1.401717143788544E+08, 1.705296461498641E+07,
2460616.500000000, A.D. 2024-Nov-02 00:00:00.0000, -2.568427786936007E+08, 1.284009094783331E+08, 1.654589520271803E+07,
2460623.500000000, A.D. 2024-Nov-09 00:00:00.0000, -2.638581598594383E+08, 1.163681539947038E+08, 1.600507513143118E+07,
2460630.500000000, A.D. 2024-Nov-16 00:00:00.0000, -2.703420474946061E+08, 1.041009203042797E+08, 1.543201145373157E+07,
2460637.500000000, A.D. 2024-Nov-23 00:00:00.0000, -2.762885551092012E+08, 9.162667435536999E+07, 1.482826798418421E+07,
2460644.500000000, A.D. 2024-Nov-30 00:00:00.0000, -2.816935081457183E+08, 7.897274117138897E+07, 1.419545511075768E+07,
2460651.500000000, A.D. 2024-Dec-07 00:00:00.0000, -2.865543838047443E+08, 6.616618015032694E+07, 1.353521981477352E+07,
2460658.500000000, A.D. 2024-Dec-14 00:00:00.0000, -2.908702414104341E+08, 5.323367222001158E+07, 1.284923616883086E+07,
2460665.500000000, A.D. 2024-Dec-21 00:00:00.0000, -2.946416472799020E+08, 4.020141817759682E+07, 1.213919651380091E+07,
2460672.500000000, A.D. 2024-Dec-28 00:00:00.0000, -2.978705937523782E+08, 2.709504557054723E+07, 1.140680296477934E+07,
2460679.500000000, A.D. 2025-Jan-04 00:00:00.0000, -3.005604113381523E+08, 1.393952659614192E+07, 1.065375925931133E+07,
2460686.500000000, A.D. 2025-Jan-11 00:00:00.0000, -3.027156772678108E+08, 7.591085669086804E+05, 9.881763291851196E+06,
2460693.500000000, A.D. 2025-Jan-18 00:00:00.0000, -3.043421227226670E+08, -1.242274427040497E+07, 9.092500369262416E+06,
2460700.500000000, A.D. 2025-Jan-25 00:00:00.0000, -3.054465397483980E+08, -2.558339846866962E+07, 8.287637138856679E+06,
2460707.500000000, A.D. 2025-Feb-01 00:00:00.0000, -3.060366887647077E+08, -3.870108924339941E+07, 7.468816170221720E+06,
2460714.500000000, A.D. 2025-Feb-08 00:00:00.0000, -3.061212075700522E+08, -5.175494908404880E+07, 6.637651177789379E+06,
$$EOE